{"type": "FeatureCollection", "features": [ {"type": "Feature", "properties": {"norad_id": 33153, "name": "INTELSAT 25 (IS-25)", "group": "intelsat", "lat": -1.7787643853013506, "lon": -46.16154972562543, "alt_km": 35771.64280698551, "timestamp": "2025-12-22T16:55:17.117971+00:00", "meta": {"OBJECT_NAME": "INTELSAT 25 (IS-25)", "OBJECT_ID": "2008-034A", "EPOCH": "2025-12-22T06:10:03.327744", "MEAN_MOTION": 1.00273109, "ECCENTRICITY": 0.00047993, "INCLINATION": 2.2507, "RA_OF_ASC_NODE": 82.5472, "ARG_OF_PERICENTER": 186.074, "MEAN_ANOMALY": 243.4523, "EPHEMERIS_TYPE": 0, "CLASSIFICATION_TYPE": "U", "NORAD_CAT_ID": 33153, "ELEMENT_SET_NO": 999, "REV_AT_EPOCH": 6392, "BSTAR": 0, "MEAN_MOTION_DOT": -2.03e-06, "MEAN_MOTION_DDOT": 0}, "tle": {"line1": "1 33153U 08034A   25356.25698296 -.00000203  00000+0  00000+0 0  9992", "line2": "2 33153   2.2507  82.5472 0004799 186.0740 243.4523  1.00273109 63922"}}, "geometry": {"type": "Point", "coordinates": [-46.16154972562543, -1.7787643853013506]}}, {"type": "Feature", "properties": {"norad_id": 33376, "name": "GALAXY 19 (G-19)", "group": "intelsat", "lat": -0.03335173194444842, "lon": -111.6978108044997, "alt_km": 35776.77878872905, "timestamp": "2025-12-22T16:55:17.117983+00:00", "meta": {"OBJECT_NAME": "GALAXY 19 (G-19)", "OBJECT_ID": "2008-045A", "EPOCH": "2025-12-22T04:08:37.456800", "MEAN_MOTION": 1.00271156, "ECCENTRICITY": 0.0002577, "INCLINATION": 0.0483, "RA_OF_ASC_NODE": 266.4229, "ARG_OF_PERICENTER": 11.4514, "MEAN_ANOMALY": 138.2609, "EPHEMERIS_TYPE": 0, "CLASSIFICATION_TYPE": "U", "NORAD_CAT_ID": 33376, "ELEMENT_SET_NO": 999, "REV_AT_EPOCH": 6312, "BSTAR": 0, "MEAN_MOTION_DOT": -1.17e-06, "MEAN_MOTION_DDOT": 0}, "tle": {"line1": "1 33376U 08045A   25356.17265575 -.00000117  00000+0  00000+0 0  9996", "line2": "2 33376   0.0483 266.4229 0002577  11.4514 138.2609  1.00271156 63121"}}, "geometry": {"type": "Point", "coordinates": [-111.6978108044997, -0.03335173194444842]}}, {"type": "Feature", "properties": {"norad_id": 35493, "name": "FM-5", "group": "intelsat", "lat": -0.02621612351731102, "lon": -100.79946140484877, "alt_km": 35787.065905480296, "timestamp": "2025-12-22T16:55:17.117995+00:00", "meta": {"OBJECT_NAME": "FM-5", "OBJECT_ID": "2009-034A", "EPOCH": "2025-12-22T06:09:12.432960", "MEAN_MOTION": 1.00271979, "ECCENTRICITY": 0.00011489, "INCLINATION": 0.0244, "RA_OF_ASC_NODE": 288.5182, "ARG_OF_PERICENTER": 228.8788, "MEAN_ANOMALY": 299.8359, "EPHEMERIS_TYPE": 0, "CLASSIFICATION_TYPE": "U", "NORAD_CAT_ID": 35493, "ELEMENT_SET_NO": 999, "REV_AT_EPOCH": 4487, "BSTAR": 0, "MEAN_MOTION_DOT": -1.78e-06, "MEAN_MOTION_DDOT": 0}, "tle": {"line1": "1 35493U 09034A   25356.25639390 -.00000178  00000+0  00000+0 0  9993", "line2": "2 35493   0.0244 288.5182 0001148 228.8788 299.8359  1.00271979 44871"}}, "geometry": {"type": "Point", "coordinates": [-100.79946140484877, -0.02621612351731102]}}, {"type": "Feature", "properties": {"norad_id": 36097, "name": "INTELSAT 14 (IS-14)", "group": "intelsat", "lat": -0.032573929461834766, "lon": -59.67109330607817, "alt_km": 35776.44066500474, "timestamp": "2025-12-22T16:55:17.118007+00:00", "meta": {"OBJECT_NAME": "INTELSAT 14 (IS-14)", "OBJECT_ID": "2009-064A", "EPOCH": "2025-12-22T05:16:38.623008", "MEAN_MOTION": 1.00270148, "ECCENTRICITY": 0.00025124, "INCLINATION": 0.0089, "RA_OF_ASC_NODE": 26.9735, "ARG_OF_PERICENTER": 256.0936, "MEAN_ANOMALY": 202.1247, "EPHEMERIS_TYPE": 0, "CLASSIFICATION_TYPE": "U", "NORAD_CAT_ID": 36097, "ELEMENT_SET_NO": 999, "REV_AT_EPOCH": 5883, "BSTAR": 0, "MEAN_MOTION_DOT": -2.52e-06, "MEAN_MOTION_DDOT": 0}, "tle": {"line1": "1 36097U 09064A   25356.21989147 -.00000252  00000+0  00000+0 0  9994", "line2": "2 36097   0.0089  26.9735 0002512 256.0936 202.1247  1.00270148 58832"}}, "geometry": {"type": "Point", "coordinates": [-59.67109330607817, -0.032573929461834766]}}, {"type": "Feature", "properties": {"norad_id": 36106, "name": "INTELSAT 15 (IS-15)", "group": "intelsat", "lat": 0.040838558190050056, "lon": 70.49536534848203, "alt_km": 35794.06847956404, "timestamp": "2025-12-22T16:55:17.118018+00:00", "meta": {"OBJECT_NAME": "INTELSAT 15 (IS-15)", "OBJECT_ID": "2009-067A", "EPOCH": "2025-12-21T22:09:42.611904", "MEAN_MOTION": 1.00271577, "ECCENTRICITY": 0.00021866, "INCLINATION": 0.0182, "RA_OF_ASC_NODE": 356.5187, "ARG_OF_PERICENTER": 285.6468, "MEAN_ANOMALY": 226.1604, "EPHEMERIS_TYPE": 0, "CLASSIFICATION_TYPE": "U", "NORAD_CAT_ID": 36106, "ELEMENT_SET_NO": 999, "REV_AT_EPOCH": 3945, "BSTAR": 0, "MEAN_MOTION_DOT": -1.63e-06, "MEAN_MOTION_DDOT": 0}, "tle": {"line1": "1 36106U 09067A   25355.92340986 -.00000163  00000+0  00000+0 0  9998", "line2": "2 36106   0.0182 356.5187 0002186 285.6468 226.1604  1.00271577 39452"}}, "geometry": {"type": "Point", "coordinates": [70.49536534848203, 0.040838558190050056]}}, {"type": "Feature", "properties": {"norad_id": 36131, "name": "DIRECTV 12", "group": "intelsat", "lat": -0.006164240856174355, "lon": -117.39575341403527, "alt_km": 35786.61922199791, "timestamp": "2025-12-22T16:55:17.118030+00:00", "meta": {"OBJECT_NAME": "DIRECTV 12", "OBJECT_ID": "2009-075A", "EPOCH": "2025-12-22T05:49:42.774816", "MEAN_MOTION": 1.00271685, "ECCENTRICITY": 3.93e-05, "INCLINATION": 0.018, "RA_OF_ASC_NODE": 102.3505, "ARG_OF_PERICENTER": 248.0602, "MEAN_ANOMALY": 85.3564, "EPHEMERIS_TYPE": 0, "CLASSIFICATION_TYPE": "U", "NORAD_CAT_ID": 36131, "ELEMENT_SET_NO": 999, "REV_AT_EPOCH": 4477, "BSTAR": 0, "MEAN_MOTION_DOT": -8.2e-07, "MEAN_MOTION_DDOT": 0}, "tle": {"line1": "1 36131U 09075A   25356.24285619 -.00000082  00000+0  00000+0 0  9992", "line2": "2 36131   0.0180 102.3505 0000393 248.0602  85.3564  1.00271685 44771"}}, "geometry": {"type": "Point", "coordinates": [-117.39575341403527, -0.006164240856174355]}}, {"type": "Feature", "properties": {"norad_id": 36397, "name": "INTELSAT 16 (IS-16)", "group": "intelsat", "lat": -0.029395687039806846, "lon": -90.87514524426392, "alt_km": 35778.664217531026, "timestamp": "2025-12-22T16:55:17.118041+00:00", "meta": {"OBJECT_NAME": "INTELSAT 16 (IS-16)", "OBJECT_ID": "2010-006A", "EPOCH": "2025-12-22T06:14:27.240864", "MEAN_MOTION": 1.00270688, "ECCENTRICITY": 0.00018364, "INCLINATION": 0.0154, "RA_OF_ASC_NODE": 316.8633, "ARG_OF_PERICENTER": 315.0883, "MEAN_ANOMALY": 196.5369, "EPHEMERIS_TYPE": 0, "CLASSIFICATION_TYPE": "U", "NORAD_CAT_ID": 36397, "ELEMENT_SET_NO": 999, "REV_AT_EPOCH": 5788, "BSTAR": 0, "MEAN_MOTION_DOT": -2.23e-06, "MEAN_MOTION_DDOT": 0}, "tle": {"line1": "1 36397U 10006A   25356.26003751 -.00000223  00000+0  00000+0 0  9996", "line2": "2 36397   0.0154 316.8633 0001836 315.0883 196.5369  1.00270688 57885"}}, "geometry": {"type": "Point", "coordinates": [-90.87514524426392, -0.029395687039806846]}}, {"type": "Feature", "properties": {"norad_id": 37185, "name": "XM-5", "group": "intelsat", "lat": -0.057305521974690445, "lon": -129.84840828111382, "alt_km": 35785.72874251878, "timestamp": "2025-12-22T16:55:17.118053+00:00", "meta": {"OBJECT_NAME": "XM-5", "OBJECT_ID": "2010-053A", "EPOCH": "2025-12-22T05:52:38.044992", "MEAN_MOTION": 1.00269548, "ECCENTRICITY": 0.00020822, "INCLINATION": 0.0681, "RA_OF_ASC_NODE": 270.5154, "ARG_OF_PERICENTER": 236.2671, "MEAN_ANOMALY": 277.2399, "EPHEMERIS_TYPE": 0, "CLASSIFICATION_TYPE": "U", "NORAD_CAT_ID": 37185, "ELEMENT_SET_NO": 999, "REV_AT_EPOCH": 5570, "BSTAR": 0, "MEAN_MOTION_DOT": -1e-08, "MEAN_MOTION_DDOT": 0}, "tle": {"line1": "1 37185U 10053A   25356.24488478 -.00000001  00000+0  00000+0 0  9999", "line2": "2 37185   0.0681 270.5154 0002082 236.2671 277.2399  1.00269548 55705"}}, "geometry": {"type": "Point", "coordinates": [-129.84840828111382, -0.057305521974690445]}}, {"type": "Feature", "properties": {"norad_id": 37238, "name": "INTELSAT 17 (IS-17)", "group": "intelsat", "lat": 0.015172046745469675, "lon": 51.330195950099366, "alt_km": 35793.626089978694, "timestamp": "2025-12-22T16:55:17.118064+00:00", "meta": {"OBJECT_NAME": "INTELSAT 17 (IS-17)", "OBJECT_ID": "2010-065B", "EPOCH": "2025-12-22T03:11:51.515232", "MEAN_MOTION": 1.00271529, "ECCENTRICITY": 0.00026128, "INCLINATION": 0.0102, "RA_OF_ASC_NODE": 292.0266, "ARG_OF_PERICENTER": 346.6867, "MEAN_ANOMALY": 286.182, "EPHEMERIS_TYPE": 0, "CLASSIFICATION_TYPE": "U", "NORAD_CAT_ID": 37238, "ELEMENT_SET_NO": 999, "REV_AT_EPOCH": 5147, "BSTAR": 0, "MEAN_MOTION_DOT": 2.1e-07, "MEAN_MOTION_DDOT": 0}, "tle": {"line1": "1 37238U 10065B   25356.13323513  .00000021  00000+0  00000+0 0  9998", "line2": "2 37238   0.0102 292.0266 0002612 346.6867 286.1820  1.00271529 51477"}}, "geometry": {"type": "Point", "coordinates": [51.330195950099366, 0.015172046745469675]}}, {"type": "Feature", "properties": {"norad_id": 37392, "name": "INTELSAT 28 (IS-28)", "group": "intelsat", "lat": -1.033797617747835, "lon": -46.3711140901435, "alt_km": 35774.677198315454, "timestamp": "2025-12-22T16:55:17.118076+00:00", "meta": {"OBJECT_NAME": "INTELSAT 28 (IS-28)", "OBJECT_ID": "2011-016A", "EPOCH": "2025-12-22T06:09:55.840320", "MEAN_MOTION": 1.00269268, "ECCENTRICITY": 0.00037309, "INCLINATION": 1.3477, "RA_OF_ASC_NODE": 84.9539, "ARG_OF_PERICENTER": 189.6681, "MEAN_ANOMALY": 237.2165, "EPHEMERIS_TYPE": 0, "CLASSIFICATION_TYPE": "U", "NORAD_CAT_ID": 37392, "ELEMENT_SET_NO": 999, "REV_AT_EPOCH": 5151, "BSTAR": 0, "MEAN_MOTION_DOT": -2.04e-06, "MEAN_MOTION_DDOT": 0}, "tle": {"line1": "1 37392U 11016A   25356.25689630 -.00000204  00000+0  00000+0 0  9998", "line2": "2 37392   1.3477  84.9539 0003730 189.6681 237.2165  1.00269268 51510"}}, "geometry": {"type": "Point", "coordinates": [-46.3711140901435, -1.033797617747835]}}]}